{
  "type": "FeatureCollection",
  "features": [
    {
      "type": "Feature",
      "properties": {},
      "geometry": {
        "coordinates": [
          [120.99998514782095, 24.78939083329344],
          [121.0001117637841, 24.789317092434132],
          [121.00022882382598, 24.78929974163748],
          [121.0003745516334, 24.789284559688298],
          [121.0005537251655, 24.78926070233628],
          [121.00060389375489, 24.78926070233628],
          [121.0007185648156, 24.789295403938098],
          [121.00088579344686, 24.789199974509387],
          [121.0010888567839, 24.789045985958666],
          [121.00132297686764, 24.78884645121343],
          [121.00152604020462, 24.788629565257494],
          [121.00169412886203, 24.788356347895657],
          [121.00197007577725, 24.788134732160728],
          [121.00215050260721, 24.787797490064833],
          [121.0020415654414, 24.78744146539873],
          [121.00206752634199, 24.787244341809526],
          [121.00223273206478, 24.787203631463683],
          [121.00236552213931, 24.78709306967589],
          [121.00235046539672, 24.78704620248743],
          [121.00235906925053, 24.787007146483177],
          [121.00209872873376, 24.786264124485527],
          [121.00174450469541, 24.785980209320314],
          [121.00150597192402, 24.78579220727572],
          [121.00128840906729, 24.785523292464134],
          [121.00120190817364, 24.78541620233267],
          [121.0011389984312, 24.78528769405304],
          [121.00068492478619, 24.78432983912542],
          [121.00054570169738, 24.78399707251404],
          [121.00046898693313, 24.783819080705],
          [121.00039511345898, 24.78349921072541],
          [120.99965069612824, 24.783574019101152],
          [120.99932110677747, 24.783530165920297],
          [120.99904834317465, 24.78343472071049],
          [120.99885797691087, 24.783285103745925],
          [120.99868333699936, 24.78307690044217],
          [120.99856417073676, 24.78277460110867],
          [120.99852211205513, 24.78269186642514],
          [120.997516208597, 24.782955980796928],
          [120.99731642986222, 24.783006894346016],
          [120.99688182349104, 24.783239187149533],
          [120.99646824645959, 24.78346193326452],
          [120.9958858700245, 24.783802066963986],
          [120.99576122028986, 24.783858651450345],
          [120.99552923328207, 24.783877512940393],
          [120.99411963505008, 24.783798262153823],
          [120.99392466039035, 24.783857267714097],
          [120.99382204214805, 24.783903851031724],
          [120.99366811478347, 24.784012545371894],
          [120.99339446613806, 24.784295150209758],
          [120.99270528176982, 24.784857233994742],
          [120.9924760156457, 24.784982122706097],
          [120.99226759199473, 24.78501996774135],
          [120.99071161217785, 24.784963788464765],
          [120.99072075964881, 24.78572783462053],
          [120.99096637497428, 24.785774788734628],
          [120.99122733168588, 24.785906915895936],
          [120.99142806761728, 24.786066379523504],
          [120.99155352757583, 24.7862987404431],
          [120.99171726250148, 24.78706272266031],
          [120.99262652914143, 24.788520750069225],
          [120.99312236881764, 24.78913739751036],
          [120.9944752563647, 24.78997889629038],
          [120.99484968418216, 24.790118865166463],
          [120.99550493286335, 24.790473785536093],
          [120.99571967822908, 24.790588759522507],
          [120.99640796465923, 24.79059375838885],
          [120.9966130801921, 24.790980869361377],
          [120.99712734089496, 24.79091417388149],
          [120.99728896568672, 24.790660730731005],
          [120.9975338517363, 24.790411733447158],
          [120.997729760575, 24.790149396482335],
          [120.99783751043663, 24.790033790186158],
          [120.99798444206607, 24.789860380540233],
          [120.99807044198485, 24.78975921665956],
          [120.99831685339808, 24.78975921665956],
          [120.99856619827932, 24.78954083758083],
          [120.99834618808876, 24.78908010972704],
          [120.99838725665762, 24.78901086724224],
          [120.99877447459181, 24.78883776086292],
          [120.99939343659099, 24.789479584843463],
          [120.99951557152929, 24.789540806688407],
          [120.9997660599243, 24.78947447965787],
          [120.99998262801626, 24.78938446434576]
        ],
        "type": "LineString"
      }
    }
  ]
}
